{"type": "FeatureCollection", "features": [ {"type": "Feature", "properties": {"norad_id": 44542, "name": "BEIDOU-3 M24 (C46)", "group": "gnss", "lat": -11.79380399257365, "lon": 179.918547631354, "alt_km": 21509.782479081445, "timestamp": "2025-12-27T09:28:56.719496+00:00", "meta": {"OBJECT_NAME": "BEIDOU-3 M24 (C46)", "OBJECT_ID": "2019-061A", "EPOCH": "2025-12-25T19:20:31.720416", "MEAN_MOTION": 1.86229328, "ECCENTRICITY": 0.00095592, "INCLINATION": 54.4007, "RA_OF_ASC_NODE": 188.5751, "ARG_OF_PERICENTER": 26.2339, "MEAN_ANOMALY": 333.8493, "EPHEMERIS_TYPE": 0, "CLASSIFICATION_TYPE": "U", "NORAD_CAT_ID": 44542, "ELEMENT_SET_NO": 999, "REV_AT_EPOCH": 4256, "BSTAR": 0, "MEAN_MOTION_DOT": 1.16e-06, "MEAN_MOTION_DDOT": 0}, "tle": {"line1": "1 44542U 19061A   25359.80592269  .00000116  00000+0  00000+0 0  9997", "line2": "2 44542  54.4007 188.5751 0009559  26.2339 333.8493  1.86229328 42560"}}, "geometry": {"type": "Point", "coordinates": [179.918547631354, -11.79380399257365]}}, {"type": "Feature", "properties": {"norad_id": 44543, "name": "BEIDOU-3 M23 (C45)", "group": "gnss", "lat": -52.70360934569157, "lon": 78.68898756847712, "alt_km": 21544.272640381925, "timestamp": "2025-12-27T09:28:56.719525+00:00", "meta": {"OBJECT_NAME": "BEIDOU-3 M23 (C45)", "OBJECT_ID": "2019-061B", "EPOCH": "2025-12-26T11:37:48.857664", "MEAN_MOTION": 1.86227559, "ECCENTRICITY": 0.0005976, "INCLINATION": 54.3995, "RA_OF_ASC_NODE": 188.5205, "ARG_OF_PERICENTER": 25.6827, "MEAN_ANOMALY": 342.0898, "EPHEMERIS_TYPE": 0, "CLASSIFICATION_TYPE": "U", "NORAD_CAT_ID": 44543, "ELEMENT_SET_NO": 999, "REV_AT_EPOCH": 4258, "BSTAR": 0, "MEAN_MOTION_DOT": 1.22e-06, "MEAN_MOTION_DDOT": 0}, "tle": {"line1": "1 44543U 19061B   25360.48459326  .00000122  00000+0  00000+0 0  9997", "line2": "2 44543  54.3995 188.5205 0005976  25.6827 342.0898  1.86227559 42581"}}, "geometry": {"type": "Point", "coordinates": [78.68898756847712, -52.70360934569157]}}, {"type": "Feature", "properties": {"norad_id": 44624, "name": "EUTELSAT 5 WEST B (EGNOS/PRN 121)", "group": "gnss", "lat": -0.06979359606982201, "lon": -126.67060997620194, "alt_km": 35775.83744128619, "timestamp": "2025-12-27T09:28:56.719539+00:00", "meta": {"OBJECT_NAME": "EUTELSAT 5 WEST B (EGNOS/PRN 121)", "OBJECT_ID": "2019-067A", "EPOCH": "2025-12-27T02:42:22.362912", "MEAN_MOTION": 1.00271218, "ECCENTRICITY": 0.0003267, "INCLINATION": 0.0618, "RA_OF_ASC_NODE": 348.3802, "ARG_OF_PERICENTER": 286.1386, "MEAN_ANOMALY": 216.922, "EPHEMERIS_TYPE": 0, "CLASSIFICATION_TYPE": "U", "NORAD_CAT_ID": 44624, "ELEMENT_SET_NO": 999, "REV_AT_EPOCH": 2271, "BSTAR": 0, "MEAN_MOTION_DOT": -2e-07, "MEAN_MOTION_DDOT": 0}, "tle": {"line1": "1 44624U 19067A   25361.11275883 -.00000020  00000+0  00000+0 0  9996", "line2": "2 44624   0.0618 348.3802 0003267 286.1386 216.9220  1.00271218 22713"}}, "geometry": {"type": "Point", "coordinates": [-126.67060997620194, -0.06979359606982201]}}, {"type": "Feature", "properties": {"norad_id": 44793, "name": "BEIDOU-3 M22 (C44)", "group": "gnss", "lat": 54.00543238685245, "lon": 40.764362410392096, "alt_km": 21515.554216201213, "timestamp": "2025-12-27T09:28:56.719551+00:00", "meta": {"OBJECT_NAME": "BEIDOU-3 M22 (C44)", "OBJECT_ID": "2019-078A", "EPOCH": "2025-12-26T04:23:18.195072", "MEAN_MOTION": 1.86232141, "ECCENTRICITY": 0.0006121, "INCLINATION": 54.096, "RA_OF_ASC_NODE": 305.9151, "ARG_OF_PERICENTER": 23.7349, "MEAN_ANOMALY": 336.3032, "EPHEMERIS_TYPE": 0, "CLASSIFICATION_TYPE": "U", "NORAD_CAT_ID": 44793, "ELEMENT_SET_NO": 999, "REV_AT_EPOCH": 4142, "BSTAR": 0, "MEAN_MOTION_DOT": -5.6e-07, "MEAN_MOTION_DDOT": 0}, "tle": {"line1": "1 44793U 19078A   25360.18284948 -.00000056  00000+0  00000+0 0  9992", "line2": "2 44793  54.0960 305.9151 0006121  23.7349 336.3032  1.86232141 41424"}}, "geometry": {"type": "Point", "coordinates": [40.764362410392096, 54.00543238685245]}}, {"type": "Feature", "properties": {"norad_id": 44794, "name": "BEIDOU-3 M21 (C43)", "group": "gnss", "lat": 0.1915297751898967, "lon": -54.03971583507618, "alt_km": 21516.86303358376, "timestamp": "2025-12-27T09:28:56.719563+00:00", "meta": {"OBJECT_NAME": "BEIDOU-3 M21 (C43)", "OBJECT_ID": "2019-078B", "EPOCH": "2025-12-25T05:55:32.884896", "MEAN_MOTION": 1.86227898, "ECCENTRICITY": 0.0004304, "INCLINATION": 54.0703, "RA_OF_ASC_NODE": 305.9129, "ARG_OF_PERICENTER": 12.6939, "MEAN_ANOMALY": 347.3266, "EPHEMERIS_TYPE": 0, "CLASSIFICATION_TYPE": "U", "NORAD_CAT_ID": 44794, "ELEMENT_SET_NO": 999, "REV_AT_EPOCH": 4141, "BSTAR": 0, "MEAN_MOTION_DOT": -5.3e-07, "MEAN_MOTION_DDOT": 0}, "tle": {"line1": "1 44794U 19078B   25359.24690839 -.00000053  00000+0  00000+0 0  9995", "line2": "2 44794  54.0703 305.9129 0004304  12.6939 347.3266  1.86227898 41411"}}, "geometry": {"type": "Point", "coordinates": [-54.03971583507618, 0.1915297751898967]}}, {"type": "Feature", "properties": {"norad_id": 44850, "name": "COSMOS 2544 (759)", "group": "gnss", "lat": 65.4349596911726, "lon": 165.61602263656118, "alt_km": 19158.002416068695, "timestamp": "2025-12-27T09:28:56.719574+00:00", "meta": {"OBJECT_NAME": "COSMOS 2544 (759)", "OBJECT_ID": "2019-088A", "EPOCH": "2025-12-25T20:55:29.447904", "MEAN_MOTION": 2.13102067, "ECCENTRICITY": 0.00144287, "INCLINATION": 65.4663, "RA_OF_ASC_NODE": 79.5196, "ARG_OF_PERICENTER": 250.7311, "MEAN_ANOMALY": 109.1604, "EPHEMERIS_TYPE": 0, "CLASSIFICATION_TYPE": "U", "NORAD_CAT_ID": 44850, "ELEMENT_SET_NO": 999, "REV_AT_EPOCH": 4702, "BSTAR": 0, "MEAN_MOTION_DOT": -3e-08, "MEAN_MOTION_DDOT": 0}, "tle": {"line1": "1 44850U 19088A   25359.87186861 -.00000003  00000+0  00000+0 0  9998", "line2": "2 44850  65.4663  79.5196 0014428 250.7311 109.1604  2.13102067 47024"}}, "geometry": {"type": "Point", "coordinates": [165.61602263656118, 65.4349596911726]}}, {"type": "Feature", "properties": {"norad_id": 44864, "name": "BEIDOU-3 M19 (C41)", "group": "gnss", "lat": -13.219053290653521, "lon": -102.53686916084503, "alt_km": 21529.410612340813, "timestamp": "2025-12-27T09:28:56.719589+00:00", "meta": {"OBJECT_NAME": "BEIDOU-3 M19 (C41)", "OBJECT_ID": "2019-090A", "EPOCH": "2025-12-27T02:26:46.358016", "MEAN_MOTION": 1.86231443, "ECCENTRICITY": 0.0018509, "INCLINATION": 56.4046, "RA_OF_ASC_NODE": 68.4857, "ARG_OF_PERICENTER": 285.4212, "MEAN_ANOMALY": 74.1614, "EPHEMERIS_TYPE": 0, "CLASSIFICATION_TYPE": "U", "NORAD_CAT_ID": 44864, "ELEMENT_SET_NO": 999, "REV_AT_EPOCH": 4102, "BSTAR": 0, "MEAN_MOTION_DOT": -3.5e-07, "MEAN_MOTION_DDOT": 0}, "tle": {"line1": "1 44864U 19090A   25361.10192544 -.00000035  00000+0  00000+0 0  9995", "line2": "2 44864  56.4046  68.4857 0018509 285.4212  74.1614  1.86231443 41020"}}, "geometry": {"type": "Point", "coordinates": [-102.53686916084503, -13.219053290653521]}}, {"type": "Feature", "properties": {"norad_id": 44865, "name": "BEIDOU-3 M20 (C42)", "group": "gnss", "lat": -53.32936984255504, "lon": 5.449286242393729, "alt_km": 21491.208895176635, "timestamp": "2025-12-27T09:28:56.719600+00:00", "meta": {"OBJECT_NAME": "BEIDOU-3 M20 (C42)", "OBJECT_ID": "2019-090B", "EPOCH": "2025-12-26T13:03:31.682016", "MEAN_MOTION": 1.86231463, "ECCENTRICITY": 0.0015612, "INCLINATION": 56.4057, "RA_OF_ASC_NODE": 68.5385, "ARG_OF_PERICENTER": 297.4355, "MEAN_ANOMALY": 137.7791, "EPHEMERIS_TYPE": 0, "CLASSIFICATION_TYPE": "U", "NORAD_CAT_ID": 44865, "ELEMENT_SET_NO": 999, "REV_AT_EPOCH": 4100, "BSTAR": 0, "MEAN_MOTION_DOT": -3.2e-07, "MEAN_MOTION_DDOT": 0}, "tle": {"line1": "1 44865U 19090B   25360.54411669 -.00000032  00000+0  00000+0 0  9992", "line2": "2 44865  56.4057  68.5385 0015612 297.4355 137.7791  1.86231463 41005"}}, "geometry": {"type": "Point", "coordinates": [5.449286242393729, -53.32936984255504]}}, {"type": "Feature", "properties": {"norad_id": 45344, "name": "BEIDOU-3 G2 (C60)", "group": "gnss", "lat": -2.529780350320839, "lon": -41.57895484867247, "alt_km": 35779.059732804155, "timestamp": "2025-12-27T09:28:56.719612+00:00", "meta": {"OBJECT_NAME": "BEIDOU-3 G2 (C60)", "OBJECT_ID": "2020-017A", "EPOCH": "2025-12-27T03:39:38.735424", "MEAN_MOTION": 1.00271784, "ECCENTRICITY": 0.0002178, "INCLINATION": 2.5224, "RA_OF_ASC_NODE": 44.1623, "ARG_OF_PERICENTER": 237.3023, "MEAN_ANOMALY": 309.3794, "EPHEMERIS_TYPE": 0, "CLASSIFICATION_TYPE": "U", "NORAD_CAT_ID": 45344, "ELEMENT_SET_NO": 999, "REV_AT_EPOCH": 2153, "BSTAR": 0, "MEAN_MOTION_DOT": -1.19e-06, "MEAN_MOTION_DDOT": 0}, "tle": {"line1": "1 45344U 20017A   25361.15253166 -.00000119  00000+0  00000+0 0  9996", "line2": "2 45344   2.5224  44.1623 0002178 237.3023 309.3794  1.00271784 21531"}}, "geometry": {"type": "Point", "coordinates": [-41.57895484867247, -2.529780350320839]}}, {"type": "Feature", "properties": {"norad_id": 45358, "name": "COSMOS 2545 (760)", "group": "gnss", "lat": -52.51712371061991, "lon": -80.09542812056223, "alt_km": 19116.39392974452, "timestamp": "2025-12-27T09:28:56.719625+00:00", "meta": {"OBJECT_NAME": "COSMOS 2545 (760)", "OBJECT_ID": "2020-018A", "EPOCH": "2025-12-27T00:08:46.380768", "MEAN_MOTION": 2.13102633, "ECCENTRICITY": 0.0011262, "INCLINATION": 64.4611, "RA_OF_ASC_NODE": 318.4699, "ARG_OF_PERICENTER": 250.7863, "MEAN_ANOMALY": 109.0965, "EPHEMERIS_TYPE": 0, "CLASSIFICATION_TYPE": "U", "NORAD_CAT_ID": 45358, "ELEMENT_SET_NO": 999, "REV_AT_EPOCH": 4499, "BSTAR": 0, "MEAN_MOTION_DOT": -3.8e-07, "MEAN_MOTION_DDOT": 0}, "tle": {"line1": "1 45358U 20018A   25361.00609237 -.00000038  00000+0  00000+0 0  9990", "line2": "2 45358  64.4611 318.4699 0011262 250.7863 109.0965  2.13102633 44999"}}, "geometry": {"type": "Point", "coordinates": [-80.09542812056223, -52.51712371061991]}}]}